TURKMENALEM52E/MONACOSAT
1 40617U 15023A   17345.63178355  .00000097  00000-0  00000-0 0  9993
2 40617   0.0091  16.8644 0001888 257.9775  85.1418  1.00270717  9669
